NORAD_CAT_ID,OBJECT_NAME,OBJECT_TYPE,EPOCH,MEAN_MOTION,ECCENTRICITY,INCLINATION,RA_OF_ASC_NODE,ARG_OF_PERICENTER,MEAN_ANOMALY,BSTAR,MEAN_MOTION_DOT,MEAN_MOTION_DDOT,TLE_LINE0,TLE_LINE1,TLE_LINE2,SEMIMAJOR_AXIS,PERIOD,APOGEE,PERIGEE,DECAYED
56806.0,STARLINK-6072,PAYLOAD,2023-10-29 04:23:46,15.69939528,0.000327,69.9976,348.998,271.8099,88.2723,3.5886e-05,4.107e-05,0.0,0 STARLINK-6072,1 56806U 23078AR  23302.18317187  .00004107  00000-0  35886-4 0  9997,2 56806  69.9976 348.9980 0003270 271.8099  88.2723 15.69939528 23992,6737.207,91.723,361.275,356.869,0.0
56806.0,STARLINK-6072,PAYLOAD,2023-10-29 12:02:34,15.69899646,0.0002554,69.9975,348.1014,263.3163,96.7742,-1.2393e-05,-1.7e-05,0.0,0 STARLINK-6072,1 56806U 23078AR  23302.50179323 -.00001700  00000-0 -12393-4 0  9997,2 56806  69.9975 348.1014 0002554 263.3163  96.7742 15.69899646 24041,6737.321,91.726,360.907,357.465,0.0
56806.0,STARLINK-6072,PAYLOAD,2023-10-30 04:51:50,15.69915023,0.0002573,69.9975,346.1302,277.5389,82.5515,1.7631e-05,1.907e-05,0.0,0 STARLINK-6072,1 56806U 23078AR  23303.20266346  .00001907  00000-0  17631-4 0  9994,2 56806  69.9975 346.1302 0002573 277.5389  82.5515 15.69915023 24158,6737.277,91.725,360.876,357.409,0.0
56806.0,STARLINK-6072,PAYLOAD,2023-10-30 12:30:38,15.69884674,0.0002643,69.9982,345.2358,273.9865,86.1029,-1.5879e-05,-2.118e-05,0.0,0 STARLINK-6072,1 56806U 23078AR  23303.52127801 -.00002118  00000-0 -15879-4 0  9990,2 56806  69.9982 345.2358 0002643 273.9865  86.1029 15.69884674 24207,6737.364,91.726,361.01,357.448,0.0
56806.0,STARLINK-6072,PAYLOAD,2023-10-31 05:19:51,15.6993913,0.0002849,69.9976,343.2653,273.3966,86.6904,-9.5881e-06,-1.366e-05,0.0,0 STARLINK-6072,1 56806U 23078AR  23304.22212381 -.00001366  00000-0 -95881-5 0  9992,2 56806  69.9976 343.2653 0002849 273.3966  86.6904 15.69939130 24317,6737.208,91.723,360.993,357.154,0.0
56806.0,STARLINK-6072,PAYLOAD,2023-10-31 12:58:37,15.69931068,0.0002012,69.9982,342.3698,247.7652,112.333,-8.8256e-06,-1.273e-05,0.0,0 STARLINK-6072,1 56806U 23078AR  23304.54071115 -.00001273  00000-0 -88256-5 0  9990,2 56806  69.9982 342.3698 0002012 247.7652 112.3330 15.69931068 24369,6737.231,91.724,360.452,357.741,0.0
56806.0,STARLINK-6072,PAYLOAD,2023-11-01 11:54:55,15.69918441,0.0002422,69.9984,339.6822,271.4886,88.6032,-1.4401e-05,-1.943e-05,0.0,0 STARLINK-6072,1 56806U 23078AR  23305.49647010 -.00001943  00000-0 -14401-4 0  9992,2 56806  69.9984 339.6822 0002422 271.4886  88.6032 15.69918441 24518,6737.267,91.725,360.764,357.501,0.0
56806.0,STARLINK-6072,PAYLOAD,2023-11-01 19:33:39,15.69919453,0.000312,69.9973,338.7855,270.7619,89.3219,2.6251e-05,2.944e-05,0.0,0 STARLINK-6072,1 56806U 23078AR  23305.81504550  .00002944  00000-0  26251-4 0  9995,2 56806  69.9973 338.7855 0003120 270.7619  89.3219 15.69919453 24568,6737.264,91.724,361.231,357.027,0.0
56806.0,STARLINK-6072,PAYLOAD,2023-11-02 12:22:56,15.69941659,0.0002107,69.9993,336.8154,266.4186,93.6769,-3.4334e-05,-4.34e-05,0.0,0 STARLINK-6072,1 56806U 23078AR  23306.51592825 -.00004340  00000-0 -34334-4 0  9990,2 56806  69.9993 336.8154 0002107 266.4186  93.6769 15.69941659 24679,6737.201,91.723,360.485,357.646,0.0
56806.0,STARLINK-6072,PAYLOAD,2023-11-03 05:12:14,15.69899405,0.0002296,69.9983,334.8451,260.1119,99.9817,-3.0513e-06,-5.78e-06,0.0,0 STARLINK-6072,1 56806U 23078AR  23307.21683607 -.00000578  00000-0 -30513-5 0  9992,2 56806  69.9983 334.8451 0002296 260.1119  99.9817 15.69899405 24788,6737.322,91.726,360.734,357.64,0.0
56806.0,STARLINK-6072,PAYLOAD,2023-11-03 11:19:14,15.69909792,0.0002226,69.998,334.1287,246.8061,113.29,7.575e-06,6.98e-06,0.0,0 STARLINK-6072,1 56806U 23078AR  23307.47169595  .00000698  00000-0  75750-5 0  9998,2 56806  69.9980 334.1287 0002226 246.8061 113.2900 15.69909792 24824,6737.292,91.725,360.657,357.657,0.0
56806.0,STARLINK-6072,PAYLOAD,2023-11-03 18:57:57,15.69951344,0.0002664,69.9969,333.2317,269.8308,90.2583,3.1553e-05,3.587e-05,0.0,0 STARLINK-6072,1 56806U 23078AR  23307.79024648  .00003587  00000-0  31553-4 0  9994,2 56806  69.9969 333.2317 0002664 269.8308  90.2583 15.69951344 24876,6737.173,91.723,360.833,357.243,0.0
56806.0,STARLINK-6072,PAYLOAD,2023-11-04 04:08:28,15.69938892,0.0001971,69.9996,332.1589,259.5866,100.5108,2.3645e-05,2.633e-05,0.0,0 STARLINK-6072,1 56806U 23078AR  23308.17255540  .00002633  00000-0  23645-4 0  9998,2 56806  69.9996 332.1589 0001971 259.5866 100.5108 15.69938892 24938,6737.209,91.723,360.402,357.746,0.0
56806.0,STARLINK-6072,PAYLOAD,2023-11-04 10:15:30,15.69918983,0.0002643,69.9995,331.4402,272.0112,88.0781,6.356e-06,5.52e-06,0.0,0 STARLINK-6072,1 56806U 23078AR  23308.42743745  .00000552  00000-0  63560-5 0  9994,2 56806  69.9995 331.4402 0002643 272.0112  88.0781 15.69918983 24974,6737.266,91.724,360.911,357.35,0.0
56806.0,STARLINK-6072,PAYLOAD,2023-11-04 11:47:15,15.69920569,0.0002671,69.9998,331.2622,269.283,90.806,5.6239e-06,4.64e-06,0.0,0 STARLINK-6072,1 56806U 23078AR  23308.49115338  .00000464  00000-0  56239-5 0  9999,2 56806  69.9998 331.2622 0002671 269.2830  90.8060 15.69920569 24722,6737.261,91.724,360.926,357.327,0.0
56806.0,STARLINK-6072,PAYLOAD,2023-11-04 19:26:00,15.69940722,0.000262,69.9997,330.365,264.225,95.8647,-1.9105e-05,-2.51e-05,0.0,0 STARLINK-6072,1 56806U 23078AR  23308.80972958 -.00002510  00000-0 -19105-4 0  9999,2 56806  69.9997 330.3650 0002620 264.2250  95.8647 15.69940722 25031,6737.204,91.723,360.834,357.303,0.0
56806.0,STARLINK-6072,PAYLOAD,2023-11-05 04:36:32,15.69913468,0.0002342,69.9982,329.2928,254.9222,105.1715,-1.0543e-05,-1.479e-05,0.0,0 STARLINK-6072,1 56806U 23078AR  23309.19204762 -.00001479  00000-0 -10543-4 0  9993,2 56806  69.9982 329.2928 0002342 254.9222 105.1715 15.69913468 25090,6737.282,91.725,360.724,357.569,0.0
56806.0,STARLINK-6072,PAYLOAD,2023-11-05 10:43:32,15.69922434,0.0002354,69.9976,328.5748,263.2328,96.86,7.8471e-06,7.31e-06,0.0,0 STARLINK-6072,1 56806U 23078AR  23309.44690393  .00000731  00000-0  78471-5 0  9993,2 56806  69.9976 328.5748 0002354 263.2328  96.8600 15.69922434 25135,6737.256,91.724,360.707,357.535,0.0
56806.0,STARLINK-6072,PAYLOAD,2023-11-05 18:22:16,15.69959334,0.0002405,69.9977,327.6779,274.7331,85.359,-1.5473e-06,-3.99e-06,0.0,0 STARLINK-6072,1 56806U 23078AR  23309.76546459 -.00000399  00000-0 -15473-5 0  9996,2 56806  69.9977 327.6779 0002405 274.7331  85.3590 15.69959334 25183,6737.15,91.722,360.636,357.395,0.0
56806.0,STARLINK-6072,PAYLOAD,2023-11-06 03:32:49,15.69911028,0.0003814,69.9982,326.6028,297.7176,62.3633,-2.4403e-05,-3.145e-05,0.0,0 STARLINK-6072,1 56806U 23078AR  23310.14779271 -.00003145  00000-0 -24403-4 0  9994,2 56806  69.9982 326.6028 0003814 297.7176  62.3633 15.69911028 25240,6737.289,91.725,361.723,356.584,0.0
56806.0,STARLINK-6072,PAYLOAD,2023-11-06 11:11:37,15.69869832,0.0002545,69.9992,325.708,275.1769,84.9136,-5.8555e-05,-7.23e-05,0.0,0 STARLINK-6072,1 56806U 23078AR  23310.46640852 -.00007230  00000-0 -58555-4 0  9995,2 56806  69.9992 325.7080 0002545 275.1769  84.9136 15.69869832 25295,6737.406,91.727,360.986,357.557,0.0
56806.0,STARLINK-6072,PAYLOAD,2023-11-06 18:50:23,15.69880169,0.0002173,69.9971,324.8141,274.6571,85.4376,-5.0387e-05,-6.254e-05,0.0,0 STARLINK-6072,1 56806U 23078AR  23310.78499254 -.00006254  00000-0 -50387-4 0  9998,2 56806  69.9971 324.8141 0002173 274.6571  85.4376 15.69880169 25346,6737.377,91.727,360.706,357.778,0.0
56806.0,STARLINK-6072,PAYLOAD,2023-11-07 04:00:51,15.69917212,0.0002294,69.9986,323.7362,260.6413,99.4523,-2.2565e-05,-2.923e-05,0.0,0 STARLINK-6072,1 56806U 23078AR  23311.16726731 -.00002923  00000-0 -22565-4 0  9990,2 56806  69.9986 323.7362 0002294 260.6413  99.4523 15.69917212 25405,6737.271,91.725,360.681,357.59,0.0
56806.0,STARLINK-6072,PAYLOAD,2023-11-07 10:07:50,15.699493,0.0002226,69.9988,323.0203,267.7285,92.3656,7.4449e-06,6.84e-06,0.0,0 STARLINK-6072,1 56806U 23078AR  23311.42210802  .00000684  00000-0  74449-5 0  9995,2 56806  69.9988 323.0203 0002226 267.7285  92.3656 15.69949300 25440,6737.179,91.723,360.544,357.544,0.0
56806.0,STARLINK-6072,PAYLOAD,2023-11-08 02:57:06,15.69944501,0.0002131,70.0002,321.0494,263.1944,96.901,-6.8202e-06,-1.033e-05,0.0,0 STARLINK-6072,1 56806U 23078AR  23312.12299386 -.00001033  00000-0 -68202-5 0  9998,2 56806  70.0002 321.0494 0002131 263.1944  96.9010 15.69944501 25551,6737.193,91.723,360.493,357.622,0.0
56806.0,STARLINK-6072,PAYLOAD,2023-11-08 10:40:27,15.65864188,0.0015501,69.9972,320.167,189.1006,170.9909,-0.0049843,-0.00483714,0.0,0 STARLINK-6072,1 56806U 23078AR  23312.44475878 -.00483714  00000-0 -49843-2 0  9992,2 56806  69.9972 320.1670 0015501 189.1006 170.9909 15.65864188 25605,6748.892,91.962,381.218,360.295,0.0
56806.0,STARLINK-6072,PAYLOAD,2023-11-08 13:39:22,15.6992258,0.0002944,69.9974,319.7957,266.3118,93.7741,2.3683e-05,2.636e-05,0.0,0 STARLINK-6072,1 56806U 23078AR  23312.56901523  .00002636  00000-0  23683-4 0  9990,2 56806  69.9974 319.7957 0002944 266.3118  93.7741 15.69922580 25362,6737.255,91.724,361.104,357.137,0.0
56806.0,STARLINK-6072,PAYLOAD,2023-11-08 22:00:00,15.69889658,0.0003525,69.9999,318.8187,264.9416,259.4207,0.00054115,0.00065272,0.0,0 STARLINK-6072,1 56806U 23078AR  23312.91667824  .00065272  00000-0  54115-3 0  9990,2 56806  69.9999 318.8187 0003525 264.9416 259.4207 15.69889658 25675,6737.35,91.726,361.59,356.84,0.0
56806.0,STARLINK-6072,PAYLOAD,2023-11-09 11:03:55,15.69922639,0.0002798,69.9982,317.2889,259.2691,100.819,-1.2203e-05,-1.679e-05,0.0,0 STARLINK-6072,1 56806U 23078AR  23313.46106443 -.00001679  00000-0 -12203-4 0  9992,2 56806  69.9982 317.2889 0002798 259.2691 100.8190 15.69922639 25769,6737.255,91.724,361.005,357.235,0.0
56806.0,STARLINK-6072,PAYLOAD,2023-11-10 02:21:35,15.69826528,0.0006899,69.9986,315.4986,254.0512,105.9924,-0.00010829,-0.00013177,0.0,0 STARLINK-6072,1 56806U 23078AR  23314.09832386 -.00013177  00000-0 -10829-3 0  9991,2 56806  69.9986 315.4986 0006899 254.0512 105.9924 15.69826528 25864,6737.53,91.73,364.044,354.747,0.0
